0 BREEZE-M DEB
1 38570U 08011R   13282.42404352 -.00001231  00000-0 -13852-1 0  2018
2 38570 048.5143 181.8924 6540836 254.9853 322.9276 03.01094949 22577
0 BREEZE-M DEB
1 38570U 08011R   13283.44033963 -.00001213  00000-0 -13006-1 0  2029
2 38570 048.5193 181.5382 6544468 255.2821 344.5783 03.01087283 22601
0 BREEZE-M DEB
1 38570U 08011R   13292.40185568 -.00000680  00000-0 -81881-2 0  2039
2 38570 048.5298 178.3919 6536575 258.0504 337.7149 03.01059662 22875
0 BREEZE-M DEB
1 38570U 08011R   13293.72281841 -.00001131  00000-0 -13968-1 0  2049
2 38570 048.5103 177.9639 6532517 258.3805 329.4074 03.01051845 22918
